[{"OBJECT_NAME":"EUTELSAT 139 WEST A","OBJECT_ID":"2004-008A","EPOCH":"2026-03-02T09:58:38.462880","MEAN_MOTION":1.00833696,"ECCENTRICITY":9.317e-5,"INCLINATION":5.5581,"RA_OF_ASC_NODE":73.2899,"ARG_OF_PERICENTER":48.9295,"MEAN_ANOMALY":146.2406,"EPHEMERIS_TYPE":0,"CLASSIFICATION_TYPE":"U","NORAD_CAT_ID":28187,"ELEMENT_SET_NO":999,"REV_AT_EPOCH":8028,"BSTAR":0,"MEAN_MOTION_DOT":-2.17e-6,"MEAN_MOTION_DDOT":0},{"OBJECT_NAME":"EUTELSAT 174A","OBJECT_ID":"2005-052A","EPOCH":"2026-03-02T19:44:26.772576","MEAN_MOTION":1.00273206,"ECCENTRICITY":0.0006269,"INCLINATION":3.9492,"RA_OF_ASC_NODE":77.8482,"ARG_OF_PERICENTER":266.3113,"MEAN_ANOMALY":286.508,"EPHEMERIS_TYPE":0,"CLASSIFICATION_TYPE":"U","NORAD_CAT_ID":28924,"ELEMENT_SET_NO":999,"REV_AT_EPOCH":5126,"BSTAR":0,"MEAN_MOTION_DOT":-6.0e-8,"MEAN_MOTION_DDOT":0},{"OBJECT_NAME":"EUTELSAT 33F","OBJECT_ID":"2006-032A","EPOCH":"2026-03-02T17:41:43.407744","MEAN_MOTION":1.00275046,"ECCENTRICITY":0.0003574,"INCLINATION":1.3868,"RA_OF_ASC_NODE":83.4967,"ARG_OF_PERICENTER":261.9287,"MEAN_ANOMALY":113.6155,"EPHEMERIS_TYPE":0,"CLASSIFICATION_TYPE":"U","NORAD_CAT_ID":29270,"ELEMENT_SET_NO":999,"REV_AT_EPOCH":4624,"BSTAR":0,"MEAN_MOTION_DOT":1.4e-6,"MEAN_MOTION_DDOT":0},{"OBJECT_NAME":"EUTELSAT HOTBIRD 13C","OBJECT_ID":"2008-065A","EPOCH":"2026-03-02T17:18:00.679680","MEAN_MOTION":1.00269465,"ECCENTRICITY":0.0003821,"INCLINATION":2.6769,"RA_OF_ASC_NODE":80.4679,"ARG_OF_PERICENTER":271.7067,"MEAN_ANOMALY":17.4998,"EPHEMERIS_TYPE":0,"CLASSIFICATION_TYPE":"U","NORAD_CAT_ID":33459,"ELEMENT_SET_NO":999,"REV_AT_EPOCH":4627,"BSTAR":0,"MEAN_MOTION_DOT":-2.98e-6,"MEAN_MOTION_DDOT":0},{"OBJECT_NAME":"EUTELSAT 36B","OBJECT_ID":"2009-065A","EPOCH":"2026-03-02T19:44:38.776128","MEAN_MOTION":1.00270908,"ECCENTRICITY":0.0005897,"INCLINATION":0.2228,"RA_OF_ASC_NODE":77.4646,"ARG_OF_PERICENTER":265.0956,"MEAN_ANOMALY":164.6618,"EPHEMERIS_TYPE":0,"CLASSIFICATION_TYPE":"U","NORAD_CAT_ID":36101,"ELEMENT_SET_NO":999,"REV_AT_EPOCH":5964,"BSTAR":0,"MEAN_MOTION_DOT":9.6e-7,"MEAN_MOTION_DDOT":0},{"OBJECT_NAME":"EUTELSAT KA-SAT 9A","OBJECT_ID":"2010-069A","EPOCH":"2026-03-02T17:34:51.564864","MEAN_MOTION":1.0026918,"ECCENTRICITY":0.0002517,"INCLINATION":0.0562,"RA_OF_ASC_NODE":357.2159,"ARG_OF_PERICENTER":137.6079,"MEAN_ANOMALY":298.384,"EPHEMERIS_TYPE":0,"CLASSIFICATION_TYPE":"U","NORAD_CAT_ID":37258,"ELEMENT_SET_NO":999,"REV_AT_EPOCH":4293,"BSTAR":0,"MEAN_MOTION_DOT":4.4e-7,"MEAN_MOTION_DDOT":0},{"OBJECT_NAME":"EUTELSAT 7 WEST A","OBJECT_ID":"2011-051A","EPOCH":"2026-03-02T17:30:14.508576","MEAN_MOTION":1.00271534,"ECCENTRICITY":0.0001433,"INCLINATION":0.0681,"RA_OF_ASC_NODE":4.2762,"ARG_OF_PERICENTER":241.0229,"MEAN_ANOMALY":170.4353,"EPHEMERIS_TYPE":0,"CLASSIFICATION_TYPE":"U","NORAD_CAT_ID":37816,"ELEMENT_SET_NO":999,"REV_AT_EPOCH":5280,"BSTAR":0,"MEAN_MOTION_DOT":-7.7e-7,"MEAN_MOTION_DDOT":0},{"OBJECT_NAME":"EUTELSAT 16A","OBJECT_ID":"2011-057A","EPOCH":"2026-03-02T18:04:16.123296","MEAN_MOTION":1.00270938,"ECCENTRICITY":0.0005464,"INCLINATION":0.0591,"RA_OF_ASC_NODE":347.6,"ARG_OF_PERICENTER":355.5402,"MEAN_ANOMALY":104.437,"EPHEMERIS_TYPE":0,"CLASSIFICATION_TYPE":"U","NORAD_CAT_ID":37836,"ELEMENT_SET_NO":999,"REV_AT_EPOCH":627,"BSTAR":0,"MEAN_MOTION_DOT":8.7e-7,"MEAN_MOTION_DDOT":0},{"OBJECT_NAME":"EUTELSAT 21B","OBJECT_ID":"2012-062B","EPOCH":"2026-03-02T17:38:28.718304","MEAN_MOTION":1.00270849,"ECCENTRICITY":0.000285,"INCLINATION":0.0677,"RA_OF_ASC_NODE":353.8813,"ARG_OF_PERICENTER":343.7403,"MEAN_ANOMALY":109.0853,"EPHEMERIS_TYPE":0,"CLASSIFICATION_TYPE":"U","NORAD_CAT_ID":38992,"ELEMENT_SET_NO":999,"REV_AT_EPOCH":4876,"BSTAR":0,"MEAN_MOTION_DOT":1.13e-6,"MEAN_MOTION_DDOT":0},{"OBJECT_NAME":"EUTELSAT 70B","OBJECT_ID":"2012-069A","EPOCH":"2026-03-02T20:10:38.498304","MEAN_MOTION":1.00275,"ECCENTRICITY":0.0002147,"INCLINATION":0.0672,"RA_OF_ASC_NODE":335.7056,"ARG_OF_PERICENTER":342.3529,"MEAN_ANOMALY":215.7066,"EPHEMERIS_TYPE":0,"CLASSIFICATION_TYPE":"U","NORAD_CAT_ID":39020,"ELEMENT_SET_NO":999,"REV_AT_EPOCH":4844,"BSTAR":0,"MEAN_MOTION_DOT":-6.0e-7,"MEAN_MOTION_DDOT":0},{"OBJECT_NAME":"EUTELSAT 117 WEST A","OBJECT_ID":"2013-012A","EPOCH":"2026-03-02T16:58:55.011360","MEAN_MOTION":1.00272711,"ECCENTRICITY":0.0003065,"INCLINATION":0.0571,"RA_OF_ASC_NODE":290.0763,"ARG_OF_PERICENTER":57.6395,"MEAN_ANOMALY":310.6849,"EPHEMERIS_TYPE":0,"CLASSIFICATION_TYPE":"U","NORAD_CAT_ID":39122,"ELEMENT_SET_NO":999,"REV_AT_EPOCH":4736,"BSTAR":0,"MEAN_MOTION_DOT":-3.0e-7,"MEAN_MOTION_DDOT":0},{"OBJECT_NAME":"EUTELSAT 7B","OBJECT_ID":"2013-022A","EPOCH":"2026-03-02T17:34:21.612576","MEAN_MOTION":1.00271647,"ECCENTRICITY":0.0006303,"INCLINATION":0.069,"RA_OF_ASC_NODE":347.3586,"ARG_OF_PERICENTER":4.3929,"MEAN_ANOMALY":79.3142,"EPHEMERIS_TYPE":0,"CLASSIFICATION_TYPE":"U","NORAD_CAT_ID":39163,"ELEMENT_SET_NO":999,"REV_AT_EPOCH":4687,"BSTAR":0,"MEAN_MOTION_DOT":3.1e-7,"MEAN_MOTION_DDOT":0},{"OBJECT_NAME":"EXPRESS-AT1","OBJECT_ID":"2014-010A","EPOCH":"2026-03-02T17:48:12.785760","MEAN_MOTION":1.00283478,"ECCENTRICITY":7.26e-5,"INCLINATION":0.0164,"RA_OF_ASC_NODE":228.1447,"ARG_OF_PERICENTER":87.737,"MEAN_ANOMALY":167.6615,"EPHEMERIS_TYPE":0,"CLASSIFICATION_TYPE":"U","NORAD_CAT_ID":39612,"ELEMENT_SET_NO":999,"REV_AT_EPOCH":4375,"BSTAR":0,"MEAN_MOTION_DOT":6.0e-7,"MEAN_MOTION_DDOT":0},{"OBJECT_NAME":"EXPRESS-AT2","OBJECT_ID":"2014-010B","EPOCH":"2026-03-01T12:03:38.784672","MEAN_MOTION":1.00268496,"ECCENTRICITY":0.00013771,"INCLINATION":0.0269,"RA_OF_ASC_NODE":137.4783,"ARG_OF_PERICENTER":122.2452,"MEAN_ANOMALY":220.3412,"EPHEMERIS_TYPE":0,"CLASSIFICATION_TYPE":"U","NORAD_CAT_ID":39613,"ELEMENT_SET_NO":999,"REV_AT_EPOCH":4342,"BSTAR":0,"MEAN_MOTION_DOT":0,"MEAN_MOTION_DDOT":0},{"OBJECT_NAME":"EUTELSAT 3B","OBJECT_ID":"2014-030A","EPOCH":"2026-03-02T17:33:06.734016","MEAN_MOTION":1.00272858,"ECCENTRICITY":0.000124,"INCLINATION":0.067,"RA_OF_ASC_NODE":3.8005,"ARG_OF_PERICENTER":271.1153,"MEAN_ANOMALY":151.9483,"EPHEMERIS_TYPE":0,"CLASSIFICATION_TYPE":"U","NORAD_CAT_ID":39773,"ELEMENT_SET_NO":999,"REV_AT_EPOCH":4299,"BSTAR":0,"MEAN_MOTION_DOT":3.0e-8,"MEAN_MOTION_DDOT":0},{"OBJECT_NAME":"EUTELSAT 115 WEST B","OBJECT_ID":"2015-010B","EPOCH":"2026-03-02T13:36:31.068864","MEAN_MOTION":1.00271814,"ECCENTRICITY":2.78e-5,"INCLINATION":0.0353,"RA_OF_ASC_NODE":4.0046,"ARG_OF_PERICENTER":77.067,"MEAN_ANOMALY":168.4876,"EPHEMERIS_TYPE":0,"CLASSIFICATION_TYPE":"U","NORAD_CAT_ID":40425,"ELEMENT_SET_NO":999,"REV_AT_EPOCH":4032,"BSTAR":0,"MEAN_MOTION_DOT":-4.2e-7,"MEAN_MOTION_DDOT":0},{"OBJECT_NAME":"EUTELSAT 8 WEST B","OBJECT_ID":"2015-039B","EPOCH":"2026-03-02T17:29:59.532864","MEAN_MOTION":1.00271561,"ECCENTRICITY":0.00038,"INCLINATION":0.0664,"RA_OF_ASC_NODE":353.2092,"ARG_OF_PERICENTER":349.2726,"MEAN_ANOMALY":72.5129,"EPHEMERIS_TYPE":0,"CLASSIFICATION_TYPE":"U","NORAD_CAT_ID":40875,"ELEMENT_SET_NO":999,"REV_AT_EPOCH":3858,"BSTAR":0,"MEAN_MOTION_DOT":-8.3e-7,"MEAN_MOTION_DDOT":0}]
