EUTELSAT 139 WEST A     
1 28187U 04008A   26061.41572295 -.00000217  00000+0  00000+0 0  9997
2 28187   5.5581  73.2899 0000931  48.9295 146.2406  1.00833696 80287
EUTELSAT 174A           
1 28924U 05052A   26061.82253209 -.00000006  00000+0  00000+0 0  9998
2 28924   3.9492  77.8482 0006269 266.3113 286.5080  1.00273206 51269
EUTELSAT 33F            
1 29270U 06032A   26061.73730796  .00000140  00000+0  00000+0 0  9991
2 29270   1.3868  83.4967 0003574 261.9287 113.6155  1.00275046 46242
EUTELSAT HOTBIRD 13C    
1 33459U 08065A   26061.72084120 -.00000298  00000+0  00000+0 0  9990
2 33459   2.6769  80.4679 0003821 271.7067  17.4998  1.00269465 46274
EUTELSAT 36B            
1 36101U 09065A   26061.82267102  .00000096  00000+0  00000+0 0  9997
2 36101   0.2228  77.4646 0005897 265.0956 164.6618  1.00270908 59646
EUTELSAT KA-SAT 9A      
1 37258U 10069A   26061.73254126  .00000044  00000+0  00000+0 0  9992
2 37258   0.0562 357.2159 0002517 137.6079 298.3840  1.00269180 42939
EUTELSAT 7 WEST A       
1 37816U 11051A   26061.72933459 -.00000077  00000+0  00000+0 0  9993
2 37816   0.0681   4.2762 0001433 241.0229 170.4353  1.00271534 52805
EUTELSAT 16A            
1 37836U 11057A   26061.75296439  .00000087  00000+0  00000+0 0  9994
2 37836   0.0591 347.6000 0005464 355.5402 104.4370  1.00270938  6271
EUTELSAT 21B            
1 38992U 12062B   26061.73505461  .00000113  00000+0  00000+0 0  9991
2 38992   0.0677 353.8813 0002850 343.7403 109.0853  1.00270849 48765
EUTELSAT 70B            
1 39020U 12069A   26061.84072336 -.00000060  00000+0  00000+0 0  9995
2 39020   0.0672 335.7056 0002147 342.3529 215.7066  1.00275000 48444
EUTELSAT 117 WEST A     
1 39122U 13012A   26061.70758115 -.00000030  00000+0  00000+0 0  9995
2 39122   0.0571 290.0763 0003065  57.6395 310.6849  1.00272711 47360
EUTELSAT 7B             
1 39163U 13022A   26061.73219459  .00000031  00000+0  00000+0 0  9997
2 39163   0.0690 347.3586 0006303   4.3929  79.3142  1.00271647 46873
EXPRESS-AT1             
1 39612U 14010A   26061.74181465  .00000060  00000+0  00000+0 0  9992
2 39612   0.0164 228.1447 0000726  87.7370 167.6615  1.00283478 43753
EXPRESS-AT2             
1 39613U 14010B   26060.50253223  .00000000  00000+0  00000+0 0  9992
2 39613   0.0269 137.4783 0001377 122.2452 220.3412  1.00268496 43423
EUTELSAT 3B             
1 39773U 14030A   26061.73132794  .00000003  00000+0  00000+0 0  9999
2 39773   0.0670   3.8005 0001240 271.1153 151.9483  1.00272858 42995
EUTELSAT 115 WEST B     
1 40425U 15010B   26061.56702626 -.00000042  00000+0  00000+0 0  9996
2 40425   0.0353   4.0046 0000278  77.0670 168.4876  1.00271814 40329
EUTELSAT 8 WEST B       
1 40875U 15039B   26061.72916126 -.00000083  00000+0  00000+0 0  9991
2 40875   0.0664 353.2092 0003800 349.2726  72.5129  1.00271561 38583
